[{"OBJECT_NAME":"ZHUHAI-1 03E","OBJECT_ID":"2019-060F","EPOCH":"2026-03-09T22:00:09.912096","MEAN_MOTION":15.3740444,"ECCENTRICITY":0.00060218,"INCLINATION":97.5464,"RA_OF_ASC_NODE":215.7681,"ARG_OF_PERICENTER":27.0132,"MEAN_ANOMALY":333.1424,"EPHEMERIS_TYPE":0,"CLASSIFICATION_TYPE":"U","NORAD_CAT_ID":44539,"ELEMENT_SET_NO":999,"REV_AT_EPOCH":36049,"BSTAR":0.00065441196,"MEAN_MOTION_DOT":0.00023971,"MEAN_MOTION_DDOT":0},{"OBJECT_NAME":"OBJECT AS","OBJECT_ID":"2024-199AS","EPOCH":"2026-03-09T22:02:20.934240","MEAN_MOTION":15.4118193,"ECCENTRICITY":0.00141686,"INCLINATION":97.3146,"RA_OF_ASC_NODE":300.9729,"ARG_OF_PERICENTER":280.4817,"MEAN_ANOMALY":79.4833,"EPHEMERIS_TYPE":0,"CLASSIFICATION_TYPE":"U","NORAD_CAT_ID":61775,"ELEMENT_SET_NO":999,"REV_AT_EPOCH":11886,"BSTAR":0.0004768324,"MEAN_MOTION_DOT":0.00019789,"MEAN_MOTION_DDOT":0}]
